{"type": "FeatureCollection", "features": [ {"type": "Feature", "properties": {"norad_id": 34819, "name": "COSMOS 2251 DEB", "group": "cosmos-2251-debris", "lat": 14.495894154365178, "lon": 155.3000445615094, "alt_km": 688.5580508278836, "timestamp": "2025-12-08T08:59:01.161709+00:00", "meta": {"OBJECT_NAME": "COSMOS 2251 DEB", "OBJECT_ID": "1993-036ABJ", "EPOCH": "2025-12-07T18:15:25.765632", "MEAN_MOTION": 14.63849221, "ECCENTRICITY": 0.00158632, "INCLINATION": 74.018, "RA_OF_ASC_NODE": 152.2296, "ARG_OF_PERICENTER": 246.0396, "MEAN_ANOMALY": 136.7333, "EPHEMERIS_TYPE": 0, "CLASSIFICATION_TYPE": "U", "NORAD_CAT_ID": 34819, "ELEMENT_SET_NO": 999, "REV_AT_EPOCH": 88156, "BSTAR": 0.0025142708, "MEAN_MOTION_DOT": 0.00013152, "MEAN_MOTION_DDOT": 0}, "tle": {"line1": "1 34819U 93036ABJ 25341.76071488  .00013152  00000+0  25143-2 0  9990", "line2": "2 34819  74.0180 152.2296 0015863 246.0396 136.7333 14.63849221881561"}}, "geometry": {"type": "Point", "coordinates": [155.3000445615094, 14.495894154365178]}}, {"type": "Feature", "properties": {"norad_id": 34823, "name": "COSMOS 2251 DEB", "group": "cosmos-2251-debris", "lat": -23.072792770281794, "lon": -62.454042995776774, "alt_km": 605.7553230995645, "timestamp": "2025-12-08T08:59:01.161719+00:00", "meta": {"OBJECT_NAME": "COSMOS 2251 DEB", "OBJECT_ID": "1993-036ABN", "EPOCH": "2025-12-07T02:20:31.613568", "MEAN_MOTION": 14.5486148, "ECCENTRICITY": 0.01552204, "INCLINATION": 74.0411, "RA_OF_ASC_NODE": 112.9601, "ARG_OF_PERICENTER": 199.1213, "MEAN_ANOMALY": 160.4087, "EPHEMERIS_TYPE": 0, "CLASSIFICATION_TYPE": "U", "NORAD_CAT_ID": 34823, "ELEMENT_SET_NO": 999, "REV_AT_EPOCH": 88299, "BSTAR": 0.0014370678, "MEAN_MOTION_DOT": 7.229e-05, "MEAN_MOTION_DDOT": 0}, "tle": {"line1": "1 34823U 93036ABN 25341.09758812  .00007229  00000+0  14371-2 0  9993", "line2": "2 34823  74.0411 112.9601 0155220 199.1213 160.4087 14.54861480882993"}}, "geometry": {"type": "Point", "coordinates": [-62.454042995776774, -23.072792770281794]}}, {"type": "Feature", "properties": {"norad_id": 34845, "name": "COSMOS 2251 DEB", "group": "cosmos-2251-debris", "lat": -43.85008584891707, "lon": 140.52251746151344, "alt_km": 729.8181608367604, "timestamp": "2025-12-08T08:59:01.161729+00:00", "meta": {"OBJECT_NAME": "COSMOS 2251 DEB", "OBJECT_ID": "1993-036ABP", "EPOCH": "2025-12-07T18:15:00.737280", "MEAN_MOTION": 14.45843427, "ECCENTRICITY": 0.00221872, "INCLINATION": 74.0232, "RA_OF_ASC_NODE": 157.6431, "ARG_OF_PERICENTER": 319.2528, "MEAN_ANOMALY": 40.697, "EPHEMERIS_TYPE": 0, "CLASSIFICATION_TYPE": "U", "NORAD_CAT_ID": 34845, "ELEMENT_SET_NO": 999, "REV_AT_EPOCH": 87394, "BSTAR": 0.0004761184, "MEAN_MOTION_DOT": 1.669e-05, "MEAN_MOTION_DDOT": 0}, "tle": {"line1": "1 34845U 93036ABP 25341.76042520  .00001669  00000+0  47612-3 0  9990", "line2": "2 34845  74.0232 157.6431 0022187 319.2528  40.6970 14.45843427873940"}}, "geometry": {"type": "Point", "coordinates": [140.52251746151344, -43.85008584891707]}}, {"type": "Feature", "properties": {"norad_id": 34846, "name": "COSMOS 2251 DEB", "group": "cosmos-2251-debris", "lat": -49.1831456288092, "lon": 109.30048968167756, "alt_km": 746.1614073972796, "timestamp": "2025-12-08T08:59:01.161740+00:00", "meta": {"OBJECT_NAME": "COSMOS 2251 DEB", "OBJECT_ID": "1993-036ABQ", "EPOCH": "2025-12-07T21:57:33.615360", "MEAN_MOTION": 14.47165824, "ECCENTRICITY": 0.00260068, "INCLINATION": 74.0312, "RA_OF_ASC_NODE": 270.7971, "ARG_OF_PERICENTER": 337.8048, "MEAN_ANOMALY": 22.1982, "EPHEMERIS_TYPE": 0, "CLASSIFICATION_TYPE": "U", "NORAD_CAT_ID": 34846, "ELEMENT_SET_NO": 999, "REV_AT_EPOCH": 87334, "BSTAR": 0.0013256679, "MEAN_MOTION_DOT": 4.835e-05, "MEAN_MOTION_DDOT": 0}, "tle": {"line1": "1 34846U 93036ABQ 25341.91497240  .00004835  00000+0  13257-2 0  9996", "line2": "2 34846  74.0312 270.7971 0026006 337.8048  22.1982 14.47165824873345"}}, "geometry": {"type": "Point", "coordinates": [109.30048968167756, -49.1831456288092]}}, {"type": "Feature", "properties": {"norad_id": 34852, "name": "COSMOS 2251 DEB", "group": "cosmos-2251-debris", "lat": 71.99407890055492, "lon": 29.254345029622083, "alt_km": 759.7556978848997, "timestamp": "2025-12-08T08:59:01.161750+00:00", "meta": {"OBJECT_NAME": "COSMOS 2251 DEB", "OBJECT_ID": "1993-036ABW", "EPOCH": "2025-12-06T13:05:14.276832", "MEAN_MOTION": 14.36997377, "ECCENTRICITY": 0.00159109, "INCLINATION": 74.0328, "RA_OF_ASC_NODE": 274.3637, "ARG_OF_PERICENTER": 19.1215, "MEAN_ANOMALY": 341.0532, "EPHEMERIS_TYPE": 0, "CLASSIFICATION_TYPE": "U", "NORAD_CAT_ID": 34852, "ELEMENT_SET_NO": 999, "REV_AT_EPOCH": 87445, "BSTAR": 0.00023532028, "MEAN_MOTION_DOT": 6.72e-06, "MEAN_MOTION_DDOT": 0}, "tle": {"line1": "1 34852U 93036ABW 25340.54530413  .00000672  00000+0  23532-3 0  9994", "line2": "2 34852  74.0328 274.3637 0015910  19.1215 341.0532 14.36997377874457"}}, "geometry": {"type": "Point", "coordinates": [29.254345029622083, 71.99407890055492]}}, {"type": "Feature", "properties": {"norad_id": 34854, "name": "COSMOS 2251 DEB", "group": "cosmos-2251-debris", "lat": 71.05256604326568, "lon": -69.40090779811695, "alt_km": 679.4205864680616, "timestamp": "2025-12-08T08:59:01.161760+00:00", "meta": {"OBJECT_NAME": "COSMOS 2251 DEB", "OBJECT_ID": "1993-036ABY", "EPOCH": "2025-12-06T06:07:08.868864", "MEAN_MOTION": 14.76535535, "ECCENTRICITY": 0.00662211, "INCLINATION": 74.0279, "RA_OF_ASC_NODE": 171.2927, "ARG_OF_PERICENTER": 284.2541, "MEAN_ANOMALY": 75.1285, "EPHEMERIS_TYPE": 0, "CLASSIFICATION_TYPE": "U", "NORAD_CAT_ID": 34854, "ELEMENT_SET_NO": 999, "REV_AT_EPOCH": 71786, "BSTAR": 0.0010983798, "MEAN_MOTION_DOT": 7.913e-05, "MEAN_MOTION_DDOT": 0}, "tle": {"line1": "1 34854U 93036ABY 25340.25496376  .00007913  00000+0  10984-2 0  9994", "line2": "2 34854  74.0279 171.2927 0066221 284.2541  75.1285 14.76535535717868"}}, "geometry": {"type": "Point", "coordinates": [-69.40090779811695, 71.05256604326568]}}, {"type": "Feature", "properties": {"norad_id": 34856, "name": "COSMOS 2251 DEB", "group": "cosmos-2251-debris", "lat": 67.58072557811066, "lon": 137.89820685697507, "alt_km": 564.2908127068094, "timestamp": "2025-12-08T08:59:01.161770+00:00", "meta": {"OBJECT_NAME": "COSMOS 2251 DEB", "OBJECT_ID": "1993-036ACA", "EPOCH": "2025-12-07T07:16:15.266208", "MEAN_MOTION": 15.05609422, "ECCENTRICITY": 0.00340835, "INCLINATION": 73.9995, "RA_OF_ASC_NODE": 96.0289, "ARG_OF_PERICENTER": 234.6289, "MEAN_ANOMALY": 154.9429, "EPHEMERIS_TYPE": 0, "CLASSIFICATION_TYPE": "U", "NORAD_CAT_ID": 34856, "ELEMENT_SET_NO": 999, "REV_AT_EPOCH": 89030, "BSTAR": 0.0029359125, "MEAN_MOTION_DOT": 0.00043129, "MEAN_MOTION_DDOT": 0}, "tle": {"line1": "1 34856U 93036ACA 25341.30295447  .00043129  00000+0  29359-2 0  9994", "line2": "2 34856  73.9995  96.0289 0034083 234.6289 154.9429 15.05609422890304"}}, "geometry": {"type": "Point", "coordinates": [137.89820685697507, 67.58072557811066]}}, {"type": "Feature", "properties": {"norad_id": 34857, "name": "COSMOS 2251 DEB", "group": "cosmos-2251-debris", "lat": 70.17010108775423, "lon": -117.48768917898812, "alt_km": 724.6782218681701, "timestamp": "2025-12-08T08:59:01.161780+00:00", "meta": {"OBJECT_NAME": "COSMOS 2251 DEB", "OBJECT_ID": "1993-036ACB", "EPOCH": "2025-12-07T09:36:55.567296", "MEAN_MOTION": 14.58801886, "ECCENTRICITY": 0.00660564, "INCLINATION": 74.0155, "RA_OF_ASC_NODE": 117.012, "ARG_OF_PERICENTER": 242.405, "MEAN_ANOMALY": 148.5803, "EPHEMERIS_TYPE": 0, "CLASSIFICATION_TYPE": "U", "NORAD_CAT_ID": 34857, "ELEMENT_SET_NO": 999, "REV_AT_EPOCH": 87823, "BSTAR": 0.001929412, "MEAN_MOTION_DOT": 9.279e-05, "MEAN_MOTION_DDOT": 0}, "tle": {"line1": "1 34857U 93036ACB 25341.40064314  .00009279  00000+0  19294-2 0  9998", "line2": "2 34857  74.0155 117.0120 0066056 242.4050 148.5803 14.58801886878239"}}, "geometry": {"type": "Point", "coordinates": [-117.48768917898812, 70.17010108775423]}}, {"type": "Feature", "properties": {"norad_id": 34859, "name": "COSMOS 2251 DEB", "group": "cosmos-2251-debris", "lat": -73.61675109233288, "lon": -114.33329939713954, "alt_km": 530.6710281101541, "timestamp": "2025-12-08T08:59:01.161790+00:00", "meta": {"OBJECT_NAME": "COSMOS 2251 DEB", "OBJECT_ID": "1993-036ACD", "EPOCH": "2025-12-07T11:51:51.286176", "MEAN_MOTION": 15.13430384, "ECCENTRICITY": 0.00033463, "INCLINATION": 74.0295, "RA_OF_ASC_NODE": 350.5589, "ARG_OF_PERICENTER": 323.0241, "MEAN_ANOMALY": 190.6444, "EPHEMERIS_TYPE": 0, "CLASSIFICATION_TYPE": "U", "NORAD_CAT_ID": 34859, "ELEMENT_SET_NO": 999, "REV_AT_EPOCH": 88279, "BSTAR": 0.0070446619, "MEAN_MOTION_DOT": 0.00128158, "MEAN_MOTION_DDOT": 0}, "tle": {"line1": "1 34859U 93036ACD 25341.49434359  .00128158  00000+0  70447-2 0  9994", "line2": "2 34859  74.0295 350.5589 0003346 323.0241 190.6444 15.13430384882798"}}, "geometry": {"type": "Point", "coordinates": [-114.33329939713954, -73.61675109233288]}}, {"type": "Feature", "properties": {"norad_id": 34861, "name": "COSMOS 2251 DEB", "group": "cosmos-2251-debris", "lat": -1.8482189926575407, "lon": 59.23594445445371, "alt_km": 561.2208148867157, "timestamp": "2025-12-08T08:59:01.161801+00:00", "meta": {"OBJECT_NAME": "COSMOS 2251 DEB", "OBJECT_ID": "1993-036ACF", "EPOCH": "2025-12-07T22:19:26.254272", "MEAN_MOTION": 15.02115811, "ECCENTRICITY": 0.00063958, "INCLINATION": 74.019, "RA_OF_ASC_NODE": 60.672, "ARG_OF_PERICENTER": 62.9477, "MEAN_ANOMALY": 54.4958, "EPHEMERIS_TYPE": 0, "CLASSIFICATION_TYPE": "U", "NORAD_CAT_ID": 34861, "ELEMENT_SET_NO": 999, "REV_AT_EPOCH": 88020, "BSTAR": 0.0030333232, "MEAN_MOTION_DOT": 0.00040091, "MEAN_MOTION_DDOT": 0}, "tle": {"line1": "1 34861U 93036ACF 25341.93016498  .00040091  00000+0  30333-2 0  9995", "line2": "2 34861  74.0190  60.6720 0006395  62.9477  54.4958 15.02115811880202"}}, "geometry": {"type": "Point", "coordinates": [59.23594445445371, -1.8482189926575407]}}]}